{"type": "FeatureCollection", "features": [ {"type": "Feature", "properties": {"norad_id": 66476, "name": "STARLINK-35372", "group": "last-30-days", "lat": -21.87334355493729, "lon": -101.95980453047497, "alt_km": 445.4370948454198, "timestamp": "2025-12-15T22:44:27.658912+00:00", "meta": {"OBJECT_NAME": "STARLINK-35372", "OBJECT_ID": "2025-262W", "EPOCH": "2025-12-15T08:00:01.999872", "MEAN_MOTION": 15.40702608, "ECCENTRICITY": 0.00013693, "INCLINATION": 43.0011, "RA_OF_ASC_NODE": 56.062, "ARG_OF_PERICENTER": 247.7634, "MEAN_ANOMALY": 154.6557, "EPHEMERIS_TYPE": 0, "CLASSIFICATION_TYPE": "U", "NORAD_CAT_ID": 66476, "ELEMENT_SET_NO": 999, "REV_AT_EPOCH": 595, "BSTAR": -0.00012159291, "MEAN_MOTION_DOT": -5.379e-05, "MEAN_MOTION_DDOT": 0}, "tle": {"line1": "1 66476U 25262W   25349.33335648 -.00005379  00000+0 -12159-3 0  9990", "line2": "2 66476  43.0011  56.0620 0001369 247.7634 154.6557 15.40702608  5956"}}, "geometry": {"type": "Point", "coordinates": [-101.95980453047497, -21.87334355493729]}}, {"type": "Feature", "properties": {"norad_id": 66477, "name": "STARLINK-35354", "group": "last-30-days", "lat": -35.348382703489435, "lon": -77.97214425659278, "alt_km": 446.2922843560864, "timestamp": "2025-12-15T22:44:27.658923+00:00", "meta": {"OBJECT_NAME": "STARLINK-35354", "OBJECT_ID": "2025-262X", "EPOCH": "2025-12-15T08:00:01.999872", "MEAN_MOTION": 15.406876, "ECCENTRICITY": 0.00015486, "INCLINATION": 43.0004, "RA_OF_ASC_NODE": 56.0006, "ARG_OF_PERICENTER": 276.5311, "MEAN_ANOMALY": 150.8685, "EPHEMERIS_TYPE": 0, "CLASSIFICATION_TYPE": "U", "NORAD_CAT_ID": 66477, "ELEMENT_SET_NO": 999, "REV_AT_EPOCH": 605, "BSTAR": 0.00021051123, "MEAN_MOTION_DOT": 8.496e-05, "MEAN_MOTION_DDOT": 0}, "tle": {"line1": "1 66477U 25262X   25349.33335648  .00008496  00000+0  21051-3 0  9993", "line2": "2 66477  43.0004  56.0006 0001548 276.5311 150.8685 15.40687600  6054"}}, "geometry": {"type": "Point", "coordinates": [-77.97214425659278, -35.348382703489435]}}, {"type": "Feature", "properties": {"norad_id": 66478, "name": "STARLINK-35283", "group": "last-30-days", "lat": -39.991713255161166, "lon": -63.38942771879942, "alt_km": 446.70693709468924, "timestamp": "2025-12-15T22:44:27.658934+00:00", "meta": {"OBJECT_NAME": "STARLINK-35283", "OBJECT_ID": "2025-262Y", "EPOCH": "2025-12-15T08:00:01.999872", "MEAN_MOTION": 15.40691083, "ECCENTRICITY": 0.00010574, "INCLINATION": 43.0008, "RA_OF_ASC_NODE": 55.9698, "ARG_OF_PERICENTER": 277.0338, "MEAN_ANOMALY": 162.8307, "EPHEMERIS_TYPE": 0, "CLASSIFICATION_TYPE": "U", "NORAD_CAT_ID": 66478, "ELEMENT_SET_NO": 999, "REV_AT_EPOCH": 605, "BSTAR": -6.2758886e-05, "MEAN_MOTION_DOT": -2.923e-05, "MEAN_MOTION_DDOT": 0}, "tle": {"line1": "1 66478U 25262Y   25349.33335648 -.00002923  00000+0 -62759-4 0  9996", "line2": "2 66478  43.0008  55.9698 0001057 277.0338 162.8307 15.40691083  6058"}}, "geometry": {"type": "Point", "coordinates": [-63.38942771879942, -39.991713255161166]}}, {"type": "Feature", "properties": {"norad_id": 66479, "name": "STARLINK-35581", "group": "last-30-days", "lat": -29.185003190579952, "lon": -90.68587755246236, "alt_km": 446.65758743841525, "timestamp": "2025-12-15T22:44:27.658945+00:00", "meta": {"OBJECT_NAME": "STARLINK-35581", "OBJECT_ID": "2025-262Z", "EPOCH": "2025-12-15T08:00:01.999872", "MEAN_MOTION": 15.40710906, "ECCENTRICITY": 0.00011368, "INCLINATION": 43.0012, "RA_OF_ASC_NODE": 56.0303, "ARG_OF_PERICENTER": 309.8146, "MEAN_ANOMALY": 105.1395, "EPHEMERIS_TYPE": 0, "CLASSIFICATION_TYPE": "U", "NORAD_CAT_ID": 66479, "ELEMENT_SET_NO": 999, "REV_AT_EPOCH": 605, "BSTAR": -0.00010686427, "MEAN_MOTION_DOT": -4.766e-05, "MEAN_MOTION_DDOT": 0}, "tle": {"line1": "1 66479U 25262Z   25349.33335648 -.00004766  00000+0 -10686-3 0  9995", "line2": "2 66479  43.0012  56.0303 0001136 309.8146 105.1395 15.40710906  6051"}}, "geometry": {"type": "Point", "coordinates": [-90.68587755246236, -29.185003190579952]}}, {"type": "Feature", "properties": {"norad_id": 66480, "name": "STARLINK-35670", "group": "last-30-days", "lat": -42.5745370629674, "lon": -47.2382831800015, "alt_km": 446.726475653576, "timestamp": "2025-12-15T22:44:27.658956+00:00", "meta": {"OBJECT_NAME": "STARLINK-35670", "OBJECT_ID": "2025-262AA", "EPOCH": "2025-12-15T08:00:01.999872", "MEAN_MOTION": 15.40669041, "ECCENTRICITY": 0.00012635, "INCLINATION": 43.0008, "RA_OF_ASC_NODE": 55.9395, "ARG_OF_PERICENTER": 295.404, "MEAN_ANOMALY": 156.9094, "EPHEMERIS_TYPE": 0, "CLASSIFICATION_TYPE": "U", "NORAD_CAT_ID": 66480, "ELEMENT_SET_NO": 999, "REV_AT_EPOCH": 605, "BSTAR": 0.00050012822, "MEAN_MOTION_DOT": 0.00020623, "MEAN_MOTION_DDOT": 0}, "tle": {"line1": "1 66480U 25262AA  25349.33335648  .00020623  00000+0  50013-3 0  9993", "line2": "2 66480  43.0008  55.9395 0001263 295.4040 156.9094 15.40669041  6054"}}, "geometry": {"type": "Point", "coordinates": [-47.2382831800015, -42.5745370629674]}}, {"type": "Feature", "properties": {"norad_id": 66481, "name": "STARLINK-35698", "group": "last-30-days", "lat": -42.7882535680981, "lon": -30.994368786625508, "alt_km": 449.4494264302957, "timestamp": "2025-12-15T22:44:27.658967+00:00", "meta": {"OBJECT_NAME": "STARLINK-35698", "OBJECT_ID": "2025-262AB", "EPOCH": "2025-12-15T08:00:01.999872", "MEAN_MOTION": 15.42223981, "ECCENTRICITY": 0.00016482, "INCLINATION": 43.0005, "RA_OF_ASC_NODE": 55.9113, "ARG_OF_PERICENTER": 264.9932, "MEAN_ANOMALY": 198.8792, "EPHEMERIS_TYPE": 0, "CLASSIFICATION_TYPE": "U", "NORAD_CAT_ID": 66481, "ELEMENT_SET_NO": 999, "REV_AT_EPOCH": 605, "BSTAR": -0.052204516, "MEAN_MOTION_DOT": -0.02039532, "MEAN_MOTION_DDOT": 0}, "tle": {"line1": "1 66481U 25262AB  25349.33335648 -.02039532  00000+0 -52205-1 0  9990", "line2": "2 66481  43.0005  55.9113 0001648 264.9932 198.8792 15.42223981  6059"}}, "geometry": {"type": "Point", "coordinates": [-30.994368786625508, -42.7882535680981]}}, {"type": "Feature", "properties": {"norad_id": 66482, "name": "STARLINK-35648", "group": "last-30-days", "lat": -39.16326018934769, "lon": -8.611496352151287, "alt_km": 437.2407110060767, "timestamp": "2025-12-15T22:44:27.658977+00:00", "meta": {"OBJECT_NAME": "STARLINK-35648", "OBJECT_ID": "2025-262AC", "EPOCH": "2025-12-15T05:57:25.466688", "MEAN_MOTION": 15.44387425, "ECCENTRICITY": 0.00011606, "INCLINATION": 43.0002, "RA_OF_ASC_NODE": 56.3758, "ARG_OF_PERICENTER": 263.8619, "MEAN_ANOMALY": 96.2107, "EPHEMERIS_TYPE": 0, "CLASSIFICATION_TYPE": "U", "NORAD_CAT_ID": 66482, "ELEMENT_SET_NO": 999, "REV_AT_EPOCH": 579, "BSTAR": -0.0083046576, "MEAN_MOTION_DOT": -0.0037451, "MEAN_MOTION_DDOT": 0}, "tle": {"line1": "1 66482U 25262AC  25349.24821142 -.00374510  00000+0 -83047-2 0  9995", "line2": "2 66482  43.0002  56.3758 0001160 263.8619  96.2107 15.44387425  5793"}}, "geometry": {"type": "Point", "coordinates": [-8.611496352151287, -39.16326018934769]}}, {"type": "Feature", "properties": {"norad_id": 66483, "name": "STARLINK-35654", "group": "last-30-days", "lat": -34.55634809414195, "lon": 4.644553372464698, "alt_km": 432.66430879549625, "timestamp": "2025-12-15T22:44:27.658988+00:00", "meta": {"OBJECT_NAME": "STARLINK-35654", "OBJECT_ID": "2025-262AD", "EPOCH": "2025-12-15T05:55:16.507776", "MEAN_MOTION": 15.45705836, "ECCENTRICITY": 0.00019194, "INCLINATION": 43.0014, "RA_OF_ASC_NODE": 56.3645, "ARG_OF_PERICENTER": 310.3294, "MEAN_ANOMALY": 49.7397, "EPHEMERIS_TYPE": 0, "CLASSIFICATION_TYPE": "U", "NORAD_CAT_ID": 66483, "ELEMENT_SET_NO": 999, "REV_AT_EPOCH": 595, "BSTAR": -0.008414589, "MEAN_MOTION_DOT": -0.00395992, "MEAN_MOTION_DDOT": 0}, "tle": {"line1": "1 66483U 25262AD  25349.24671884 -.00395992  00000+0 -84146-2 0  9990", "line2": "2 66483  43.0014  56.3645 0001919 310.3294  49.7397 15.45705836  5954"}}, "geometry": {"type": "Point", "coordinates": [4.644553372464698, -34.55634809414195]}}, {"type": "Feature", "properties": {"norad_id": 66484, "name": "STARLINK-35371", "group": "last-30-days", "lat": -29.426585085879044, "lon": 15.011818482985626, "alt_km": 429.0208304841826, "timestamp": "2025-12-15T22:44:27.659026+00:00", "meta": {"OBJECT_NAME": "STARLINK-35371", "OBJECT_ID": "2025-262AE", "EPOCH": "2025-12-15T05:53:27.420000", "MEAN_MOTION": 15.46656463, "ECCENTRICITY": 0.00019587, "INCLINATION": 43.0013, "RA_OF_ASC_NODE": 56.3462, "ARG_OF_PERICENTER": 225.9041, "MEAN_ANOMALY": 134.1656, "EPHEMERIS_TYPE": 0, "CLASSIFICATION_TYPE": "U", "NORAD_CAT_ID": 66484, "ELEMENT_SET_NO": 999, "REV_AT_EPOCH": 595, "BSTAR": 4.0336585e-05, "MEAN_MOTION_DOT": 1.736e-05, "MEAN_MOTION_DDOT": 0}, "tle": {"line1": "1 66484U 25262AE  25349.24545625  .00001736  00000+0  40337-4 0  9998", "line2": "2 66484  43.0013  56.3462 0001958 225.9041 134.1656 15.46656463  5954"}}, "geometry": {"type": "Point", "coordinates": [15.011818482985626, -29.426585085879044]}}, {"type": "Feature", "properties": {"norad_id": 66485, "name": "STARLINK-34774", "group": "last-30-days", "lat": -2.074852915396657, "lon": 104.70148506552837, "alt_km": 443.3565167684901, "timestamp": "2025-12-15T22:44:27.659039+00:00", "meta": {"OBJECT_NAME": "STARLINK-34774", "OBJECT_ID": "2025-263A", "EPOCH": "2025-12-15T08:45:06.203232", "MEAN_MOTION": 15.40735368, "ECCENTRICITY": 0.00014939, "INCLINATION": 43.0003, "RA_OF_ASC_NODE": 110.2896, "ARG_OF_PERICENTER": 292.4673, "MEAN_ANOMALY": 67.6025, "EPHEMERIS_TYPE": 0, "CLASSIFICATION_TYPE": "U", "NORAD_CAT_ID": 66485, "ELEMENT_SET_NO": 999, "REV_AT_EPOCH": 596, "BSTAR": 0.00087843787, "MEAN_MOTION_DOT": 0.0003661, "MEAN_MOTION_DDOT": 0}, "tle": {"line1": "1 66485U 25263A   25349.36465513  .00036610  00000+0  87844-3 0  9992", "line2": "2 66485  43.0003 110.2896 0001493 292.4673  67.6025 15.40735368  5966"}}, "geometry": {"type": "Point", "coordinates": [104.70148506552837, -2.074852915396657]}}]}